JILIN-1 GAOFEN 03D52    
1 54255U 22155E   26079.87768685  .00043905  00000+0  71277-3 0  9992
2 54255  97.6068 217.2181 0003768 335.2200  24.8870 15.52605192185975
EUTELSAT 10B            
1 54259U 22157A   26079.84560586  .00000070  00000+0  00000+0 0  9993
2 54259   0.0582 100.9380 0001403  16.1188  15.7184  1.00266594 12143
EOS-6 (OCEANSAT-3)      
1 54361U 22158A   26079.85927113  .00000299  00000+0  94033-4 0  9999
2 54361  98.3481 179.2534 0000835 162.4793 197.6428 14.47014276175065
YAOGAN-36 03A           
1 54372U 22160A   26079.70068196  .00017734  00000+0  56201-3 0  9991
2 54372  34.9995 168.2692 0003545 200.4694 159.5881 15.31835792184620
YAOGAN-36 03B           
1 54374U 22160C   26079.78519542  .00008427  00000+0  38524-3 0  9994
2 54374  34.9925 199.6446 0008476  82.8644 277.3033 15.19801225184263
YAOGAN-36 03C           
1 54376U 22160E   26079.71988170  .00012671  00000+0  52572-3 0  9991
2 54376  35.0091 175.8589 0011156 305.4264  54.5409 15.23002099184557
COSMOS 2564 [GLONASS-M] 
1 54377U 22161A   26078.61244127  .00000030  00000+0  00000+0 0  9999
2 54377  64.7408 195.6826 0009862 212.8824 147.0473  2.13101840 25728
COSMOS 2565             
1 54381U 22163A   26079.85718601 -.00000025  00000+0  35888-4 0  9998
2 54381  67.1504 321.9391 0005884 276.5181  83.5234 13.96671882168437
COSMOS 2566             
1 54383U 22163C   26079.85668291  .00000017  00000+0  65500-4 0  9993
2 54383  67.1442 317.2065 0006934 195.4660 164.6215 13.97697169168228
JIAOTONG VDES           
1 54588U 22164A   26079.86717638  .00000393  00000+0  12218-3 0  9996
2 54588  98.2498 101.4614 0008833 231.5747 128.4653 14.46008619173313
GAOFEN-5 01A            
1 54640U 22165A   26079.83626227  .00000462  00000+0  11092-3 0  9992
2 54640  98.2292  18.1075 0000365 102.8429 257.2811 14.57822258174546
ONEWEB-0527             
1 54642U 22166A   26079.75733689  .00000031  00000+0  43542-4 0  9995
2 54642  87.9161 261.6245 0001753  93.3472 266.7862 13.21826558159851
ONEWEB-0528             
1 54643U 22166B   26079.46113405  .00000010  00000+0 -82438-5 0  9998
2 54643  87.9164 261.6877 0001781  94.8504 265.2833 13.21825246159821
ONEWEB-0539             
1 54644U 22166C   26079.80177602 -.00001094  00000+0 -26804-2 0  9992
2 54644  87.9166 261.5859 0001638 101.8821 258.2496 13.21817852159860
ONEWEB-0540             
1 54645U 22166D   26079.50570418  .00000014  00000+0  34604-5 0  9991
2 54645  87.9162 261.6809 0001551  95.8297 264.3014 13.21824725159812
ONEWEB-0542             
1 54646U 22166E   26079.73594411  .00000022  00000+0  22186-4 0  9996
2 54646  87.9172 261.5958 0001405 101.8213 258.3078 13.21825056159857
ONEWEB-0545             
1 54647U 22166F   26079.77707013  .00000009  00000+0 -99016-5 0  9998
2 54647  87.9164 261.6066 0001232 105.1015 255.0256 13.21827430159822
ONEWEB-0580             
1 54648U 22166G   26079.75075160  .00000046  00000+0  80658-4 0  9999
2 54648  87.9163 261.6117 0001292  96.4257 263.7024 13.21826671159864
ONEWEB-0582             
1 54649U 22166H   26079.41505162  .00000022  00000+0  20537-4 0  9997
2 54649  87.9165 261.6715 0001249 103.4490 256.6783 13.21827197159790
ONEWEB-0583             
1 54650U 22166J   26079.72934590 -.00000117  00000+0 -31398-3 0  9997
2 54650  87.9164 261.6320 0001597  98.8528 261.2787 13.21825355159844
ONEWEB-0584             
1 54651U 22166K   26079.74910224  .00000004  00000+0 -22395-4 0  9990
2 54651  87.9160 261.6154 0001310  94.6801 265.4482 13.21826636159837
ONEWEB-0585             
1 54652U 22166L   26079.77379079  .00000007  00000+0 -14147-4 0  9990
2 54652  87.9164 261.5950 0001802  91.0741 269.0599 13.21825187159845
ONEWEB-0586             
1 54653U 22166M   26079.48417948 -.00000116  00000+0 -31182-3 0  9996
2 54653  87.9164 261.6787 0001550  99.3995 260.7314 13.21825314159808
ONEWEB-0587             
1 54654U 22166N   26079.79682399 -.00000063  00000+0 -18332-3 0  9998
2 54654  87.9174 261.5809 0002038  91.0444 269.0924 13.21824758160008
ONEWEB-0589             
1 54655U 22166P   26079.85935552 -.00000017  00000+0 -71981-4 0  9997
2 54655  87.9162 261.5922 0000826 105.2966 254.8260 13.21824766159879
ONEWEB-0590             
1 54656U 22166Q   26079.42972639  .00000015  00000+0  45141-5 0  9994
2 54656  87.9170 261.6592 0001602  78.0474 282.0840 13.21825739159808
ONEWEB-0591             
1 54657U 22166R   26079.74417490  .00000002  00000+0 -27228-4 0  9991
2 54657  87.9165 261.6174 0001613  91.7269 268.4050 13.21825075159876
ONEWEB-0592             
1 54658U 22166S   26079.74746249  .00000004  00000+0 -20679-4 0  9994
2 54658  87.9170 261.5880 0001643  93.0083 267.1239 13.21824863159754
ONEWEB-0593             
1 54659U 22166T   26079.77048238 -.00000048  00000+0 -14689-3 0  9993
2 54659  87.9163 261.6017 0001621  99.4602 260.6715 13.21827514159868
ONEWEB-0594             
1 54660U 22166U   26079.79024058 -.00000008  00000+0 -51807-4 0  9991
2 54660  87.9163 261.6156 0001794  94.5593 265.5746 13.21824921159889
ONEWEB-0595             
1 54661U 22166V   26079.76720723  .00000030  00000+0  41358-4 0  9994
2 54661  87.9172 261.5935 0001823  89.6283 270.5060 13.21824843159853
ONEWEB-0596             
1 54662U 22166W   26079.74087853  .00000014  00000+0  29145-5 0  9996
2 54662  87.9163 261.6157 0001732  91.2136 268.9196 13.21824834159857
ONEWEB-0597             
1 54663U 22166X   26079.41998005  .00000005  00000+0 -19942-4 0  9995
2 54663  87.9164 261.6848 0001538  95.7551 264.3759 13.21827629159816
ONEWEB-0600             
1 54664U 22166Y   26079.78037449 -.00000012  00000+0 -59530-4 0  9998
2 54664  87.9163 261.6037 0001725 102.4917 257.6410 13.21824846159835
ONEWEB-0601             
1 54665U 22166Z   26079.77213662  .00000054  00000+0  98908-4 0  9997
2 54665  87.9162 261.6224 0001423  98.0558 262.0737 13.21827696160020
ONEWEB-0602             
1 54666U 22166AA  26079.73676899 -.00000022  00000+0 -85653-4 0  9999
2 54666  87.9162 261.6352 0001775 104.2839 255.8492 13.21825033159866
ONEWEB-0603             
1 54667U 22166AB  26079.74252475  .00000094  00000+0  19706-3 0  9993
2 54667  87.9175 261.5815 0001559  97.1240 263.0072 13.21824811159790
ONEWEB-0604             
1 54668U 22166AC  26079.42822062  .00000026  00000+0  31479-4 0  9991
2 54668  87.9174 261.6587 0001754  93.7416 266.3918 13.21824805159711
ONEWEB-0605             
1 54669U 22166AD  26079.80011803 -.00000028  00000+0 -99663-4 0  9990
2 54669  87.9164 261.6069 0001120  86.3030 273.8232 13.21825095159830
ONEWEB-0606             
1 54670U 22166AE  26079.74580133  .00000056  00000+0  10399-3 0  9999
2 54670  87.9162 261.6306 0001794  90.5501 269.5839 13.21827561159881
ONEWEB-0607             
1 54671U 22166AF  26079.78860050 -.00000130  00000+0 -34523-3 0  9993
2 54671  87.9170 261.5871 0001560  99.0747 261.0564 13.21826258159866
ONEWEB-0608             
1 54672U 22166AG  26079.79517836 -.00000046  00000+0 -14411-3 0  9996
2 54672  87.9175 261.5797 0001121  96.9134 263.2128 13.21824958159874
ONEWEB-0610             
1 54673U 22166AH  26079.77543029  .00000064  00000+0  12380-3 0  9999
2 54673  87.9163 261.6071 0001130 108.0492 252.0765 13.21824791159777
ONEWEB-0611             
1 54674U 22166AJ  26079.76885742  .00000000  00000+0 -30501-4 0  9997
2 54674  87.9161 261.6051 0001858  93.9333 266.2014 13.21824567159761
ONEWEB-0612             
1 54675U 22166AK  26079.78201036  .00000014  00000+0  22717-5 0  9993
2 54675  87.9175 261.5877 0001534  97.2495 262.8813 13.21827630159751
ONEWEB-0615             
1 54676U 22166AL  26079.76226368  .00000070  00000+0  13731-3 0  9993
2 54676  87.9166 261.6146 0001654  95.1183 265.0140 13.21827447159761
ONEWEB-0655             
1 54677U 22166AM  26079.73758166  .00000011  00000+0 -50537-5 0  9990
2 54677  87.9162 261.6217 0001661 104.7763 255.3555 13.21824636159754
ONEWEB-0659             
1 54678U 22166AN  26079.45125018  .00000049  00000+0  87737-4 0  9995
2 54678  87.9162 261.6792 0001711  91.3933 268.7397 13.21828939159807
ONEWEB-0685             
1 54679U 22166AP  26079.45176398  .00000034  00000+0  49978-4 0  9992
2 54679  87.9157 261.6738 0001573 100.0035 260.1277 13.21813406159692
ONEWEB-0712             
1 54680U 22166AQ  26079.44756219  .00000056  00000+0  11242-3 0  9995
2 54680  87.9017 246.4164 0001924 113.3181 246.8153 13.16594590160388
ONEWEB-0714             
1 54681U 22166AR  26079.76062700  .00000055  00000+0  10081-3 0  9995
2 54681  87.9162 261.6075 0001608 101.1700 258.9614 13.21825107159854
DONGPO 09               
1 54685U 22167D   26079.83851943  .00013410  00000+0  40665-3 0  9993
2 54685  97.6817 247.0734 0003604  88.6607 271.5048 15.34250281181898
DONGPO 08               
1 54686U 22167E   26079.86685089  .00012623  00000+0  41286-3 0  9998
2 54686  97.6774 244.6858 0009659 119.0402 241.1808 15.31810541181793
2022-167F               
1 54687U 22167F   26079.84397418  .00104380  00000+0  85435-3 0  9999
2 54687  97.6211 258.5559 0001952 338.9899  21.1282 15.70204607182888
DONGPO 10               
1 54689U 22167H   26079.85261463  .00012246  00000+0  39188-3 0  9995
2 54689  97.6859 246.4165 0006072  75.4253 284.7661 15.32547270181827
JILIN-1 GAOFEN 03D50    
1 54690U 22167J   26079.84637646  .00012711  00000+0  40652-3 0  9991
2 54690  97.6741 244.2488 0006392  69.0051 291.1873 15.32555047181810
JIAOTONG 5 (HEAD-2H)    
1 54691U 22167K   26079.85687529  .00168482  00000+0  11915-2 0  9994
2 54691  97.6133 263.1534 0004461 290.5282  69.5502 15.73490762183130
JILIN-1 GAOFEN 03D47    
1 54692U 22167L   26079.86506161  .00012471  00000+0  40622-3 0  9992
2 54692  97.6845 245.9704 0008800  76.9772 283.2450 15.31952194181815
JILIN-1 GAOFEN 03D49    
1 54694U 22167N   26079.88406501  .00015073  00000+0  44273-3 0  9990
2 54694  97.6723 246.1997 0006980  94.7514 265.4526 15.35212961181932
